0 COSMOS 839 DEB
1 10449U 76067AA  13281.86228361 -.00000000  00000-0  13904-3 0  9660
2 10449 066.0293 105.3188 0755334 163.6803 310.2083 12.45437729693443
0 COSMOS 839 DEB
1 10449U 76067AA  13283.52382674  .00000016  00000-0  39971-4 0  9684
2 10449 066.0290 102.0504 0755553 162.9804 199.8528 12.45437989693658
0 COSMOS 839 DEB
1 10449U 76067AA  13283.87004394 -.00000005  00000-0  12704-3 0  9674
2 10449 066.0294 101.3664 0755200 162.8239 312.1551 12.45437964693694
0 COSMOS 839 DEB
1 10449U 76067AA  13286.11644802 -.00000040  00000-0  38560-4 0  9687
2 10449 066.0297 096.9442 0755026 161.8625 304.0827 12.45438447693978
0 COSMOS 839 DEB
1 10449U 76067AA  13288.51747270 -.00000066  00000-0 -25502-4 0  9698
2 10449 066.0304 092.2177 0754870 160.8385 269.2634 12.45438732694278
0 COSMOS 839 DEB
1 10449U 76067AA  13290.51008352  .00000019  00000-0  47973-4 0  9717
2 10449 066.0293 088.2977 0755083 159.9983 203.2809 12.45438437694520
0 COSMOS 839 DEB
1 10449U 76067AA  13290.52504397 -.00000064  00000-0 -20672-4 0  9706
2 10449 066.0310 088.2660 0754738 159.9822 270.3679 12.45438607694526
0 COSMOS 839 DEB
1 10449U 76067AA  13292.85663376 -.00000027  00000-0  71783-4 0  9715
2 10449 066.0315 083.6768 0754581 158.9825 284.2404 12.45438276694811
0 COSMOS 839 DEB
1 10449U 76067AA  13294.86460715 -.00000016  00000-0  10041-3 0  9728
2 10449 066.0317 079.7245 0754429 158.1270 287.1455 12.45438393695062
